{"type": "FeatureCollection", "features": [ {"type": "Feature", "properties": {"norad_id": 31567, "name": "FENGYUN 1C DEB", "group": "fengyun-1c-debris", "lat": -57.872537450608974, "lon": 32.585945555519025, "alt_km": 810.9996247293047, "timestamp": "2025-12-27T10:28:59.077708+00:00", "meta": {"OBJECT_NAME": "FENGYUN 1C DEB", "OBJECT_ID": "1999-025BZJ", "EPOCH": "2025-12-27T02:25:25.072032", "MEAN_MOTION": 13.92993658, "ECCENTRICITY": 0.0186245, "INCLINATION": 102.3176, "RA_OF_ASC_NODE": 232.5016, "ARG_OF_PERICENTER": 274.3588, "MEAN_ANOMALY": 83.6301, "EPHEMERIS_TYPE": 0, "CLASSIFICATION_TYPE": "U", "NORAD_CAT_ID": 31567, "ELEMENT_SET_NO": 999, "REV_AT_EPOCH": 67609, "BSTAR": 0.0029993, "MEAN_MOTION_DOT": 4.426e-05, "MEAN_MOTION_DDOT": 0}, "tle": {"line1": "1 31567U 99025BZJ 25361.10098463  .00004426  00000+0  29993-2 0  9994", "line2": "2 31567 102.3176 232.5016 0186245 274.3588  83.6301 13.92993658676090"}}, "geometry": {"type": "Point", "coordinates": [32.585945555519025, -57.872537450608974]}}, {"type": "Feature", "properties": {"norad_id": 31568, "name": "FENGYUN 1C DEB", "group": "fengyun-1c-debris", "lat": -66.95149176319144, "lon": 38.13284671719119, "alt_km": 976.6314111479178, "timestamp": "2025-12-27T10:28:59.077718+00:00", "meta": {"OBJECT_NAME": "FENGYUN 1C DEB", "OBJECT_ID": "1999-025BZK", "EPOCH": "2025-12-22T23:13:36.644736", "MEAN_MOTION": 14.03431945, "ECCENTRICITY": 0.01239953, "INCLINATION": 102.049, "RA_OF_ASC_NODE": 242.3634, "ARG_OF_PERICENTER": 93.8828, "MEAN_ANOMALY": 267.6513, "EPHEMERIS_TYPE": 0, "CLASSIFICATION_TYPE": "U", "NORAD_CAT_ID": 31568, "ELEMENT_SET_NO": 999, "REV_AT_EPOCH": 94723, "BSTAR": 0.0030433024, "MEAN_MOTION_DOT": 5.034e-05, "MEAN_MOTION_DDOT": 0}, "tle": {"line1": "1 31568U 99025BZK 25356.96778524  .00005034  00000+0  30433-2 0  9993", "line2": "2 31568 102.0490 242.3634 0123995  93.8828 267.6513 14.03431945947231"}}, "geometry": {"type": "Point", "coordinates": [38.13284671719119, -66.95149176319144]}}, {"type": "Feature", "properties": {"norad_id": 31569, "name": "FENGYUN 1C DEB", "group": "fengyun-1c-debris", "lat": 20.152855715105762, "lon": 159.30301085622241, "alt_km": 825.5837909717166, "timestamp": "2025-12-27T10:28:59.077728+00:00", "meta": {"OBJECT_NAME": "FENGYUN 1C DEB", "OBJECT_ID": "1999-025BZL", "EPOCH": "2025-12-26T06:00:17.966016", "MEAN_MOTION": 13.95617313, "ECCENTRICITY": 0.0174856, "INCLINATION": 102.6154, "RA_OF_ASC_NODE": 162.3987, "ARG_OF_PERICENTER": 333.5969, "MEAN_ANOMALY": 206.7911, "EPHEMERIS_TYPE": 0, "CLASSIFICATION_TYPE": "U", "NORAD_CAT_ID": 31569, "ELEMENT_SET_NO": 999, "REV_AT_EPOCH": 93867, "BSTAR": 0.0023981, "MEAN_MOTION_DOT": 3.638e-05, "MEAN_MOTION_DDOT": 0}, "tle": {"line1": "1 31569U 99025BZL 25360.25020794  .00003638  00000+0  23981-2 0  9998", "line2": "2 31569 102.6154 162.3987 0174856 333.5969 206.7911 13.95617313938678"}}, "geometry": {"type": "Point", "coordinates": [159.30301085622241, 20.152855715105762]}}, {"type": "Feature", "properties": {"norad_id": 31570, "name": "FENGYUN 1C DEB", "group": "fengyun-1c-debris", "lat": 30.928401646325227, "lon": 38.97245581624455, "alt_km": 906.2119792399617, "timestamp": "2025-12-27T10:28:59.077738+00:00", "meta": {"OBJECT_NAME": "FENGYUN 1C DEB", "OBJECT_ID": "1999-025BZM", "EPOCH": "2025-12-19T23:45:35.930016", "MEAN_MOTION": 14.25330142, "ECCENTRICITY": 0.01547682, "INCLINATION": 102.5663, "RA_OF_ASC_NODE": 36.0247, "ARG_OF_PERICENTER": 206.1842, "MEAN_ANOMALY": 153.1437, "EPHEMERIS_TYPE": 0, "CLASSIFICATION_TYPE": "U", "NORAD_CAT_ID": 31570, "ELEMENT_SET_NO": 999, "REV_AT_EPOCH": 63470, "BSTAR": 0.0019503601, "MEAN_MOTION_DOT": 5.132e-05, "MEAN_MOTION_DDOT": 0}, "tle": {"line1": "1 31570U 99025BZM 25353.98999919  .00005132  00000+0  19504-2 0  9993", "line2": "2 31570 102.5663  36.0247 0154768 206.1842 153.1437 14.25330142634706"}}, "geometry": {"type": "Point", "coordinates": [38.97245581624455, 30.928401646325227]}}, {"type": "Feature", "properties": {"norad_id": 31608, "name": "FENGYUN 1C DEB", "group": "fengyun-1c-debris", "lat": 80.6233448827397, "lon": 57.151163204209226, "alt_km": 611.4974589143658, "timestamp": "2025-12-27T10:28:59.077748+00:00", "meta": {"OBJECT_NAME": "FENGYUN 1C DEB", "OBJECT_ID": "1999-025BZN", "EPOCH": "2025-12-17T14:09:29.850912", "MEAN_MOTION": 14.85908283, "ECCENTRICITY": 0.01457059, "INCLINATION": 98.3797, "RA_OF_ASC_NODE": 109.9897, "ARG_OF_PERICENTER": 22.0076, "MEAN_ANOMALY": 338.7309, "EPHEMERIS_TYPE": 0, "CLASSIFICATION_TYPE": "U", "NORAD_CAT_ID": 31608, "ELEMENT_SET_NO": 999, "REV_AT_EPOCH": 98705, "BSTAR": 0.00045964647, "MEAN_MOTION_DOT": 4.79e-05, "MEAN_MOTION_DDOT": 0}, "tle": {"line1": "1 31608U 99025BZN 25351.58992883  .00004790  00000+0  45965-3 0  9992", "line2": "2 31608  98.3797 109.9897 0145705  22.0076 338.7309 14.85908283987055"}}, "geometry": {"type": "Point", "coordinates": [57.151163204209226, 80.6233448827397]}}, {"type": "Feature", "properties": {"norad_id": 31609, "name": "FENGYUN 1C DEB", "group": "fengyun-1c-debris", "lat": 7.568787477607319, "lon": -148.30628205611626, "alt_km": 860.0146889924999, "timestamp": "2025-12-27T10:28:59.077758+00:00", "meta": {"OBJECT_NAME": "FENGYUN 1C DEB", "OBJECT_ID": "1999-025BZP", "EPOCH": "2025-12-22T21:42:13.279104", "MEAN_MOTION": 14.15844126, "ECCENTRICITY": 0.0094714, "INCLINATION": 99.2139, "RA_OF_ASC_NODE": 25.7728, "ARG_OF_PERICENTER": 291.5289, "MEAN_ANOMALY": 191.9396, "EPHEMERIS_TYPE": 0, "CLASSIFICATION_TYPE": "U", "NORAD_CAT_ID": 31609, "ELEMENT_SET_NO": 999, "REV_AT_EPOCH": 66228, "BSTAR": 0.002391, "MEAN_MOTION_DOT": 4.866e-05, "MEAN_MOTION_DDOT": 0}, "tle": {"line1": "1 31609U 99025BZP 25356.90432036  .00004866  00000+0  23910-2 0  9992", "line2": "2 31609  99.2139  25.7728 0094714 291.5289 191.9396 14.15844126662284"}}, "geometry": {"type": "Point", "coordinates": [-148.30628205611626, 7.568787477607319]}}, {"type": "Feature", "properties": {"norad_id": 31612, "name": "FENGYUN 1C DEB", "group": "fengyun-1c-debris", "lat": 38.22567910858121, "lon": -84.14584253495048, "alt_km": 313.18335828915315, "timestamp": "2025-12-27T10:28:59.077769+00:00", "meta": {"OBJECT_NAME": "FENGYUN 1C DEB", "OBJECT_ID": "1999-025BZS", "EPOCH": "2025-12-26T17:35:17.462400", "MEAN_MOTION": 15.78611667, "ECCENTRICITY": 0.00275304, "INCLINATION": 100.3335, "RA_OF_ASC_NODE": 283.0666, "ARG_OF_PERICENTER": 64.7576, "MEAN_ANOMALY": 295.653, "EPHEMERIS_TYPE": 0, "CLASSIFICATION_TYPE": "U", "NORAD_CAT_ID": 31612, "ELEMENT_SET_NO": 999, "REV_AT_EPOCH": 225, "BSTAR": 0.0020836353, "MEAN_MOTION_DOT": 0.00386959, "MEAN_MOTION_DDOT": 0}, "tle": {"line1": "1 31612U 99025BZS 25360.73284100  .00386959  00000+0  20836-2 0  9999", "line2": "2 31612 100.3335 283.0666 0027530  64.7576 295.6530 15.78611667  2250"}}, "geometry": {"type": "Point", "coordinates": [-84.14584253495048, 38.22567910858121]}}, {"type": "Feature", "properties": {"norad_id": 31613, "name": "FENGYUN 1C DEB", "group": "fengyun-1c-debris", "lat": -80.22464744722484, "lon": -114.12647918495664, "alt_km": 1252.675750847564, "timestamp": "2025-12-27T10:28:59.077779+00:00", "meta": {"OBJECT_NAME": "FENGYUN 1C DEB", "OBJECT_ID": "1999-025BZT", "EPOCH": "2025-12-23T06:31:23.498400", "MEAN_MOTION": 13.63471347, "ECCENTRICITY": 0.03426742, "INCLINATION": 98.424, "RA_OF_ASC_NODE": 182.93, "ARG_OF_PERICENTER": 78.1321, "MEAN_ANOMALY": 285.8034, "EPHEMERIS_TYPE": 0, "CLASSIFICATION_TYPE": "U", "NORAD_CAT_ID": 31613, "ELEMENT_SET_NO": 999, "REV_AT_EPOCH": 91905, "BSTAR": 0.0011595288, "MEAN_MOTION_DOT": 1.328e-05, "MEAN_MOTION_DDOT": 0}, "tle": {"line1": "1 31613U 99025BZT 25357.27179975  .00001328  00000+0  11595-2 0  9994", "line2": "2 31613  98.4240 182.9300 0342674  78.1321 285.8034 13.63471347919057"}}, "geometry": {"type": "Point", "coordinates": [-114.12647918495664, -80.22464744722484]}}, {"type": "Feature", "properties": {"norad_id": 31614, "name": "FENGYUN 1C DEB", "group": "fengyun-1c-debris", "lat": -80.09785236413452, "lon": 24.598193039836108, "alt_km": 567.7604466442162, "timestamp": "2025-12-27T10:28:59.077789+00:00", "meta": {"OBJECT_NAME": "FENGYUN 1C DEB", "OBJECT_ID": "1999-025BZU", "EPOCH": "2025-12-26T17:31:59.437920", "MEAN_MOTION": 14.99923397, "ECCENTRICITY": 0.00168729, "INCLINATION": 98.9718, "RA_OF_ASC_NODE": 268.6124, "ARG_OF_PERICENTER": 325.9958, "MEAN_ANOMALY": 88.5438, "EPHEMERIS_TYPE": 0, "CLASSIFICATION_TYPE": "U", "NORAD_CAT_ID": 31614, "ELEMENT_SET_NO": 999, "REV_AT_EPOCH": 96639, "BSTAR": 0.0080646768, "MEAN_MOTION_DOT": 0.00101715, "MEAN_MOTION_DDOT": 0}, "tle": {"line1": "1 31614U 99025BZU 25360.73054905  .00101715  00000+0  80647-2 0  9990", "line2": "2 31614  98.9718 268.6124 0016872 325.9958  88.5438 14.99923397966398"}}, "geometry": {"type": "Point", "coordinates": [24.598193039836108, -80.09785236413452]}}, {"type": "Feature", "properties": {"norad_id": 31615, "name": "FENGYUN 1C DEB", "group": "fengyun-1c-debris", "lat": -2.5479999443018366, "lon": 54.148507478683676, "alt_km": 761.5580355495476, "timestamp": "2025-12-27T10:28:59.077799+00:00", "meta": {"OBJECT_NAME": "FENGYUN 1C DEB", "OBJECT_ID": "1999-025BZV", "EPOCH": "2025-12-26T09:24:16.311744", "MEAN_MOTION": 14.35601551, "ECCENTRICITY": 0.0167346, "INCLINATION": 99.1382, "RA_OF_ASC_NODE": 52.6312, "ARG_OF_PERICENTER": 276.6776, "MEAN_ANOMALY": 81.5387, "EPHEMERIS_TYPE": 0, "CLASSIFICATION_TYPE": "U", "NORAD_CAT_ID": 31615, "ELEMENT_SET_NO": 999, "REV_AT_EPOCH": 65474, "BSTAR": 0.0035838, "MEAN_MOTION_DOT": 0.00012077, "MEAN_MOTION_DDOT": 0}, "tle": {"line1": "1 31615U 99025BZV 25360.39185546  .00012077  00000+0  35838-2 0  9993", "line2": "2 31615  99.1382  52.6312 0167346 276.6776  81.5387 14.35601551654746"}}, "geometry": {"type": "Point", "coordinates": [54.148507478683676, -2.5479999443018366]}}]}